<?xml version="1.0" encoding="UTF-8"?>
<ndm xmlns:xsi="http://www.w3.org/2001/XMLSchema-instance" xsi:noNamespaceSchemaLocation="https://sanaregistry.org/r/ndmxml_unqualified/ndmxml-2.0.0-master-2.0.xsd">
<omm id="CCSDS_OMM_VERS" version="2.0">
<header><CREATION_DATE/><ORIGINATOR/></header><body><segment><metadata><OBJECT_NAME>IRIDIUM 119</OBJECT_NAME><OBJECT_ID>2017-061E</OBJECT_ID><CENTER_NAME>EARTH</CENTER_NAME><REF_FRAME>TEME</REF_FRAME><TIME_SYSTEM>UTC</TIME_SYSTEM><MEAN_ELEMENT_THEORY>SGP4</MEAN_ELEMENT_THEORY></metadata><data><meanElements><EPOCH>2024-02-24T09:59:02.659200</EPOCH><MEAN_MOTION>14.34216820</MEAN_MOTION><ECCENTRICITY>.0001958</ECCENTRICITY><INCLINATION>86.4000</INCLINATION><RA_OF_ASC_NODE>17.8446</RA_OF_ASC_NODE><ARG_OF_PERICENTER>87.4246</ARG_OF_PERICENTER><MEAN_ANOMALY>272.7174</MEAN_ANOMALY></meanElements><tleParameters><EPHEMERIS_TYPE>0</EPHEMERIS_TYPE><CLASSIFICATION_TYPE>U</CLASSIFICATION_TYPE><NORAD_CAT_ID>42959</NORAD_CAT_ID><ELEMENT_SET_NO>999</ELEMENT_SET_NO><REV_AT_EPOCH>33387</REV_AT_EPOCH><BSTAR>.12524E-4</BSTAR><MEAN_MOTION_DOT>.55E-6</MEAN_MOTION_DOT><MEAN_MOTION_DDOT>0</MEAN_MOTION_DDOT></tleParameters></data></segment></body></omm>
<omm id="CCSDS_OMM_VERS" version="2.0">
<header><CREATION_DATE/><ORIGINATOR/></header><body><segment><metadata><OBJECT_NAME>IRIDIUM 107</OBJECT_NAME><OBJECT_ID>2017-061F</OBJECT_ID><CENTER_NAME>EARTH</CENTER_NAME><REF_FRAME>TEME</REF_FRAME><TIME_SYSTEM>UTC</TIME_SYSTEM><MEAN_ELEMENT_THEORY>SGP4</MEAN_ELEMENT_THEORY></metadata><data><meanElements><EPOCH>2024-02-24T10:26:26.614464</EPOCH><MEAN_MOTION>14.34218369</MEAN_MOTION><ECCENTRICITY>.0002147</ECCENTRICITY><INCLINATION>86.4001</INCLINATION><RA_OF_ASC_NODE>17.8529</RA_OF_ASC_NODE><ARG_OF_PERICENTER>95.3006</ARG_OF_PERICENTER><MEAN_ANOMALY>264.8435</MEAN_ANOMALY></meanElements><tleParameters><EPHEMERIS_TYPE>0</EPHEMERIS_TYPE><CLASSIFICATION_TYPE>U</CLASSIFICATION_TYPE><NORAD_CAT_ID>42960</NORAD_CAT_ID><ELEMENT_SET_NO>999</ELEMENT_SET_NO><REV_AT_EPOCH>33388</REV_AT_EPOCH><BSTAR>.16139E-3</BSTAR><MEAN_MOTION_DOT>.472E-5</MEAN_MOTION_DOT><MEAN_MOTION_DDOT>0</MEAN_MOTION_DDOT></tleParameters></data></segment></body></omm>
<omm id="CCSDS_OMM_VERS" version="2.0">
<header><CREATION_DATE/><ORIGINATOR/></header><body><segment><metadata><OBJECT_NAME>IRIDIUM 132</OBJECT_NAME><OBJECT_ID>2017-061G</OBJECT_ID><CENTER_NAME>EARTH</CENTER_NAME><REF_FRAME>TEME</REF_FRAME><TIME_SYSTEM>UTC</TIME_SYSTEM><MEAN_ELEMENT_THEORY>SGP4</MEAN_ELEMENT_THEORY></metadata><data><meanElements><EPOCH>2024-02-24T10:35:34.677312</EPOCH><MEAN_MOTION>14.34217168</MEAN_MOTION><ECCENTRICITY>.0001974</ECCENTRICITY><INCLINATION>86.3996</INCLINATION><RA_OF_ASC_NODE>17.8359</RA_OF_ASC_NODE><ARG_OF_PERICENTER>92.7835</ARG_OF_PERICENTER><MEAN_ANOMALY>267.3587</MEAN_ANOMALY></meanElements><tleParameters><EPHEMERIS_TYPE>0</EPHEMERIS_TYPE><CLASSIFICATION_TYPE>U</CLASSIFICATION_TYPE><NORAD_CAT_ID>42961</NORAD_CAT_ID><ELEMENT_SET_NO>999</ELEMENT_SET_NO><REV_AT_EPOCH>33388</REV_AT_EPOCH><BSTAR>-.24546E-4</BSTAR><MEAN_MOTION_DOT>-.49E-6</MEAN_MOTION_DOT><MEAN_MOTION_DDOT>0</MEAN_MOTION_DDOT></tleParameters></data></segment></body></omm>
<omm id="CCSDS_OMM_VERS" version="2.0">
<header><CREATION_DATE/><ORIGINATOR/></header><body><segment><metadata><OBJECT_NAME>IRIDIUM 136</OBJECT_NAME><OBJECT_ID>2017-061H</OBJECT_ID><CENTER_NAME>EARTH</CENTER_NAME><REF_FRAME>TEME</REF_FRAME><TIME_SYSTEM>UTC</TIME_SYSTEM><MEAN_ELEMENT_THEORY>SGP4</MEAN_ELEMENT_THEORY></metadata><data><meanElements><EPOCH>2024-02-24T14:42:10.595232</EPOCH><MEAN_MOTION>14.34216851</MEAN_MOTION><ECCENTRICITY>.0002011</ECCENTRICITY><INCLINATION>86.4001</INCLINATION><RA_OF_ASC_NODE>17.7668</RA_OF_ASC_NODE><ARG_OF_PERICENTER>81.9554</ARG_OF_PERICENTER><MEAN_ANOMALY>278.1870</MEAN_ANOMALY></meanElements><tleParameters><EPHEMERIS_TYPE>0</EPHEMERIS_TYPE><CLASSIFICATION_TYPE>U</CLASSIFICATION_TYPE><NORAD_CAT_ID>42962</NORAD_CAT_ID><ELEMENT_SET_NO>999</ELEMENT_SET_NO><REV_AT_EPOCH>33392</REV_AT_EPOCH><BSTAR>.21823E-4</BSTAR><MEAN_MOTION_DOT>.81E-6</MEAN_MOTION_DOT><MEAN_MOTION_DDOT>0</MEAN_MOTION_DDOT></tleParameters></data></segment></body></omm>
<omm id="CCSDS_OMM_VERS" version="2.0">
<header><CREATION_DATE/><ORIGINATOR/></header><body><segment><metadata><OBJECT_NAME>IRIDIUM 139</OBJECT_NAME><OBJECT_ID>2017-061J</OBJECT_ID><CENTER_NAME>EARTH</CENTER_NAME><REF_FRAME>TEME</REF_FRAME><TIME_SYSTEM>UTC</TIME_SYSTEM><MEAN_ELEMENT_THEORY>SGP4</MEAN_ELEMENT_THEORY></metadata><data><meanElements><EPOCH>2024-02-24T09:49:54.754464</EPOCH><MEAN_MOTION>14.34217627</MEAN_MOTION><ECCENTRICITY>.0002152</ECCENTRICITY><INCLINATION>86.4001</INCLINATION><RA_OF_ASC_NODE>17.8998</RA_OF_ASC_NODE><ARG_OF_PERICENTER>92.2523</ARG_OF_PERICENTER><MEAN_ANOMALY>267.8919</MEAN_ANOMALY></meanElements><tleParameters><EPHEMERIS_TYPE>0</EPHEMERIS_TYPE><CLASSIFICATION_TYPE>U</CLASSIFICATION_TYPE><NORAD_CAT_ID>42963</NORAD_CAT_ID><ELEMENT_SET_NO>999</ELEMENT_SET_NO><REV_AT_EPOCH>33390</REV_AT_EPOCH><BSTAR>.48264E-4</BSTAR><MEAN_MOTION_DOT>.155E-5</MEAN_MOTION_DOT><MEAN_MOTION_DDOT>0</MEAN_MOTION_DDOT></tleParameters></data></segment></body></omm>
<omm id="CCSDS_OMM_VERS" version="2.0">
<header><CREATION_DATE/><ORIGINATOR/></header><body><segment><metadata><OBJECT_NAME>IRIDIUM 125</OBJECT_NAME><OBJECT_ID>2017-061K</OBJECT_ID><CENTER_NAME>EARTH</CENTER_NAME><REF_FRAME>TEME</REF_FRAME><TIME_SYSTEM>UTC</TIME_SYSTEM><MEAN_ELEMENT_THEORY>SGP4</MEAN_ELEMENT_THEORY></metadata><data><meanElements><EPOCH>2024-02-24T14:33:02.659392</EPOCH><MEAN_MOTION>14.34217509</MEAN_MOTION><ECCENTRICITY>.0001791</ECCENTRICITY><INCLINATION>86.4003</INCLINATION><RA_OF_ASC_NODE>17.8633</RA_OF_ASC_NODE><ARG_OF_PERICENTER>91.7670</ARG_OF_PERICENTER><MEAN_ANOMALY>268.3730</MEAN_ANOMALY></meanElements><tleParameters><EPHEMERIS_TYPE>0</EPHEMERIS_TYPE><CLASSIFICATION_TYPE>U</CLASSIFICATION_TYPE><NORAD_CAT_ID>42964</NORAD_CAT_ID><ELEMENT_SET_NO>999</ELEMENT_SET_NO><REV_AT_EPOCH>33394</REV_AT_EPOCH><BSTAR>.8265E-4</BSTAR><MEAN_MOTION_DOT>.251E-5</MEAN_MOTION_DOT><MEAN_MOTION_DDOT>0</MEAN_MOTION_DDOT></tleParameters></data></segment></body></omm>
<omm id="CCSDS_OMM_VERS" version="2.0">
<header><CREATION_DATE/><ORIGINATOR/></header><body><segment><metadata><OBJECT_NAME>IRIDIUM 135</OBJECT_NAME><OBJECT_ID>2017-083A</OBJECT_ID><CENTER_NAME>EARTH</CENTER_NAME><REF_FRAME>TEME</REF_FRAME><TIME_SYSTEM>UTC</TIME_SYSTEM><MEAN_ELEMENT_THEORY>SGP4</MEAN_ELEMENT_THEORY></metadata><data><meanElements><EPOCH>2024-02-24T10:34:51.282048</EPOCH><MEAN_MOTION>14.34217103</MEAN_MOTION><ECCENTRICITY>.0002431</ECCENTRICITY><INCLINATION>86.3987</INCLINATION><RA_OF_ASC_NODE>314.6544</RA_OF_ASC_NODE><ARG_OF_PERICENTER>86.7413</ARG_OF_PERICENTER><MEAN_ANOMALY>273.4060</MEAN_ANOMALY></meanElements><tleParameters><EPHEMERIS_TYPE>0</EPHEMERIS_TYPE><CLASSIFICATION_TYPE>U</CLASSIFICATION_TYPE><NORAD_CAT_ID>43070</NORAD_CAT_ID><ELEMENT_SET_NO>999</ELEMENT_SET_NO><REV_AT_EPOCH>32321</REV_AT_EPOCH><BSTAR>.6478E-4</BSTAR><MEAN_MOTION_DOT>.201E-5</MEAN_MOTION_DOT><MEAN_MOTION_DDOT>0</MEAN_MOTION_DDOT></tleParameters></data></segment></body></omm>
<omm id="CCSDS_OMM_VERS" version="2.0">
<header><CREATION_DATE/><ORIGINATOR/></header><body><segment><metadata><OBJECT_NAME>IRIDIUM 138</OBJECT_NAME><OBJECT_ID>2017-083B</OBJECT_ID><CENTER_NAME>EARTH</CENTER_NAME><REF_FRAME>TEME</REF_FRAME><TIME_SYSTEM>UTC</TIME_SYSTEM><MEAN_ELEMENT_THEORY>SGP4</MEAN_ELEMENT_THEORY></metadata><data><meanElements><EPOCH>2024-02-24T11:11:23.110944</EPOCH><MEAN_MOTION>14.34218323</MEAN_MOTION><ECCENTRICITY>.0001816</ECCENTRICITY><INCLINATION>86.3976</INCLINATION><RA_OF_ASC_NODE>314.3753</RA_OF_ASC_NODE><ARG_OF_PERICENTER>82.8822</ARG_OF_PERICENTER><MEAN_ANOMALY>277.2580</MEAN_ANOMALY></meanElements><tleParameters><EPHEMERIS_TYPE>0</EPHEMERIS_TYPE><CLASSIFICATION_TYPE>U</CLASSIFICATION_TYPE><NORAD_CAT_ID>43071</NORAD_CAT_ID><ELEMENT_SET_NO>999</ELEMENT_SET_NO><REV_AT_EPOCH>32320</REV_AT_EPOCH><BSTAR>.10787E-3</BSTAR><MEAN_MOTION_DOT>.322E-5</MEAN_MOTION_DOT><MEAN_MOTION_DDOT>0</MEAN_MOTION_DDOT></tleParameters></data></segment></body></omm>

</ndm>
