IRIDIUM 119             
1 42959U 17061E   24055.41600300  .00000055  00000+0  12524-4 0  9991
2 42959  86.4000  17.8446 0001958  87.4246 272.7174 14.34216820333878
IRIDIUM 107             
1 42960U 17061F   24055.43503026  .00000472  00000+0  16139-3 0  9990
2 42960  86.4001  17.8529 0002147  95.3006 264.8435 14.34218369333889
IRIDIUM 132             
1 42961U 17061G   24055.44137358 -.00000049  00000+0 -24546-4 0  9997
2 42961  86.3996  17.8359 0001974  92.7835 267.3587 14.34217168333883
IRIDIUM 136             
1 42962U 17061H   24055.61262263  .00000081  00000+0  21823-4 0  9990
2 42962  86.4001  17.7668 0002011  81.9554 278.1870 14.34216851333923
IRIDIUM 139             
1 42963U 17061J   24055.40966151  .00000155  00000+0  48264-4 0  9995
2 42963  86.4001  17.8998 0002152  92.2523 267.8919 14.34217627333907
IRIDIUM 125             
1 42964U 17061K   24055.60628078  .00000251  00000+0  82650-4 0  9995
2 42964  86.4003  17.8633 0001791  91.7670 268.3730 14.34217509333941
IRIDIUM 135             
1 43070U 17083A   24055.44087132  .00000201  00000+0  64780-4 0  9999
2 43070  86.3987 314.6544 0002431  86.7413 273.4060 14.34217103323212
IRIDIUM 138             
1 43071U 17083B   24055.46623971  .00000322  00000+0  10787-3 0  9990
2 43071  86.3976 314.3753 0001816  82.8822 277.2580 14.34218323323200
